NORAD_CAT_ID,OBJECT_NAME,OBJECT_TYPE,EPOCH,MEAN_MOTION,ECCENTRICITY,INCLINATION,RA_OF_ASC_NODE,ARG_OF_PERICENTER,MEAN_ANOMALY,BSTAR,MEAN_MOTION_DOT,MEAN_MOTION_DDOT,TLE_LINE0,TLE_LINE1,TLE_LINE2,SEMIMAJOR_AXIS,PERIOD,APOGEE,PERIGEE,DECAYED
55407.0,STARLINK-5019,PAYLOAD,2023-07-08 21:09:32,15.51224633,0.0003601,69.9979,5.6879,272.695,87.3824,3.0916e-06,1.7e-07,0.0,0 STARLINK-5019,1 55407U 23014S   23189.88163063  .00000017  00000-0  30916-5 0  9991,2 55407  69.9979   5.6879 0003601 272.6950  87.3824 15.51224633 25010,6791.286,92.83,415.597,410.706,0.0
55407.0,STARLINK-5019,PAYLOAD,2023-07-10 16:29:33,15.51228182,0.0003637,69.9981,0.7512,272.044,88.033,6.7576e-06,2.32e-06,0.0,0 STARLINK-5019,1 55407U 23014S   23191.68719071  .00000232  00000-0  67576-5 0  9999,2 55407  69.9981   0.7512 0003637 272.0440  88.0330 15.51228182 25293,6791.276,92.83,415.611,410.671,0.0
55407.0,STARLINK-5019,PAYLOAD,2023-07-10 21:08:10,15.51198329,0.0003515,69.9979,0.2222,298.5738,61.5094,-4.0485e-05,-2.54e-05,0.0,0 STARLINK-5019,1 55407U 23014S   23191.88067158 -.00002540  00000-0 -40485-4 0  9998,2 55407  69.9979   0.2222 0003515 298.5738  61.5094 15.51198329 25327,6791.363,92.831,415.615,410.841,0.0
55407.0,STARLINK-5019,PAYLOAD,2023-07-11 11:04:42,15.50614194,0.000375,69.998,358.6373,269.2822,90.7934,-0.0013165,-0.0007513,0.0,0 STARLINK-5019,1 55407U 23014S   23192.46160399 -.00075130  00000-0 -13165-2 0  9992,2 55407  69.9980 358.6373 0003750 269.2822  90.7934 15.50614194 25415,6793.069,92.866,417.481,412.386,0.0
55407.0,STARLINK-5019,PAYLOAD,2023-07-11 15:44:56,15.49466012,0.0001037,69.9979,358.1127,259.8743,100.2326,-0.003864,-0.00207868,0.0,0 STARLINK-5019,1 55407U 23014S   23192.65621135 -.00207868  00000-0 -38640-2 0  9993,2 55407  69.9979 358.1127 0001037 259.8743 100.2326 15.49466012 25445,6796.424,92.935,418.994,417.584,0.0
55407.0,STARLINK-5019,PAYLOAD,2023-07-12 06:00:00,15.48451094,0.0003527,70.0005,356.4859,269.9591,168.0643,-0.017229,-0.00839166,0.0,0 STARLINK-5019,1 55407U 23014S   23193.25001157 -.00839166  00000-0 -17229-1 0  9997,2 55407  70.0005 356.4859 0003527 269.9591 168.0643 15.48451094 25537,6799.394,92.996,423.657,418.86,0.0
55407.0,STARLINK-5019,PAYLOAD,2023-07-12 14:00:01,15.47860124,0.0003501,70.0005,355.5786,270.7105,224.6011,-0.020099,-0.00961205,0.0,0 STARLINK-5019,1 55407U 23014S   23193.58335648 -.00961205  00000-0 -20099-1 0  9997,2 55407  70.0005 355.5786 0003501 270.7105 224.6011 15.47860124 25589,6801.124,93.032,425.37,420.608,0.0
55407.0,STARLINK-5019,PAYLOAD,2023-07-13 18:00:00,15.45521269,0.0003335,70.0002,352.4107,275.3441,234.0978,-0.019368,-0.00850905,0.0,0 STARLINK-5019,1 55407U 23014S   23194.75001157 -.00850905  00000-0 -19368-1 0  9993,2 55407  70.0002 352.4107 0003335 275.3441 234.0978 15.45521269 25767,6807.984,93.172,432.119,427.578,0.0
55407.0,STARLINK-5019,PAYLOAD,2023-07-14 04:00:01,15.44717405,0.000336,70.0001,351.2814,271.1597,35.3724,-0.020551,-0.0088768,0.0,0 STARLINK-5019,1 55407U 23014S   23195.16668981 -.00887680  00000-0 -20551-1 0  9999,2 55407  70.0001 351.2814 0003360 271.1597  35.3724 15.44717405 25839,6810.346,93.221,434.499,429.922,0.0
55407.0,STARLINK-5019,PAYLOAD,2023-07-14 22:00:00,15.43280353,0.0003222,70.0002,349.253,277.2086,236.8138,-0.022534,-0.00923776,0.0,0 STARLINK-5019,1 55407U 23014S   23195.91667824 -.00923776  00000-0 -22534-1 0  9997,2 55407  70.0002 349.2530 0003222 277.2086 236.8138 15.43280353 25944,6814.573,93.308,438.633,434.242,0.0
55407.0,STARLINK-5019,PAYLOAD,2023-07-15 22:00:00,15.41327729,0.0003273,70.0003,346.5554,275.5104,29.1091,-0.024311,-0.00932569,0.0,0 STARLINK-5019,1 55407U 23014S   23196.91667824 -.00932569  00000-0 -24311-1 0  9993,2 55407  70.0003 346.5554 0003273 275.5104  29.1091 15.41327729 26106,6820.327,93.426,444.424,439.959,0.0
55407.0,STARLINK-5019,PAYLOAD,2023-07-17 02:00:01,15.39030481,0.0003184,70.0004,343.419,269.5709,21.8575,-0.025975,-0.00924101,0.0,0 STARLINK-5019,1 55407U 23014S   23198.08334491 -.00924101  00000-0 -25975-1 0  9994,2 55407  70.0004 343.4190 0003184 269.5709  21.8575 15.39030481 26282,6827.112,93.565,451.151,446.803,0.0
55407.0,STARLINK-5019,PAYLOAD,2023-07-18 06:00:00,15.36724353,0.0003261,70.0009,340.2929,264.9451,3.7006,-0.025993,-0.00862756,0.0,0 STARLINK-5019,1 55407U 23014S   23199.25001157 -.00862756  00000-0 -25993-1 0  9991,2 55407  70.0009 340.2929 0003261 264.9451   3.7006 15.36724353 26464,6833.94,93.706,458.034,453.577,0.0
55407.0,STARLINK-5019,PAYLOAD,2023-07-18 14:00:01,15.36090634,0.0003305,70.0012,339.4018,268.3919,43.4158,-0.028269,-0.00914769,0.0,0 STARLINK-5019,1 55407U 23014S   23199.58334491 -.00914769  00000-0 -28269-1 0  9998,2 55407  70.0012 339.4018 0003305 268.3919  43.4158 15.36090634 26516,6835.82,93.744,459.944,455.426,0.0
55407.0,STARLINK-5019,PAYLOAD,2023-07-19 14:00:01,15.34135618,0.0003302,70.0013,336.7336,270.7191,165.8705,-0.030213,-0.0091803,0.0,0 STARLINK-5019,1 55407U 23014S   23200.58334491 -.00918030  00000-0 -30213-1 0  9998,2 55407  70.0013 336.7336 0003302 270.7191 165.8705 15.34135618 26669,6841.626,93.864,465.75,461.232,0.0
55407.0,STARLINK-5019,PAYLOAD,2023-07-21 14:00:01,15.30212965,0.0003316,70.0011,331.4213,269.9592,35.0776,-0.033538,-0.00902184,0.0,0 STARLINK-5019,1 55407U 23014S   23202.58334491 -.00902184  00000-0 -33538-1 0  9996,2 55407  70.0011 331.4213 0003316 269.9592  35.0776 15.30212965 26970,6853.313,94.105,477.451,472.906,0.0
55407.0,STARLINK-5019,PAYLOAD,2023-07-24 14:00:01,15.24341015,0.0003399,70.0006,323.512,271.6735,323.2261,-0.040022,-0.00911316,0.0,0 STARLINK-5019,1 55407U 23014S   23205.58334491 -.00911316  00000-0 -40022-1 0  9992,2 55407  70.0006 323.5120 0003399 271.6735 323.2261 15.24341015  2194,6870.902,94.467,495.102,490.432,0.0
55407.0,STARLINK-5019,PAYLOAD,2023-07-25 14:00:01,15.22385683,0.0003524,70.0004,320.8908,271.9411,45.5605,-0.042506,-0.00913036,0.0,0 STARLINK-5019,1 55407U 23014S   23206.58335648 -.00913036  00000-0 -42506-1 0  9998,2 55407  70.0004 320.8908 0003524 271.9411  45.5605 15.22385683  2351,6876.784,94.588,501.072,496.226,0.0
55407.0,STARLINK-5019,PAYLOAD,2023-07-26 14:00:01,15.20429194,0.0003531,70.0003,318.2774,273.3862,119.5506,-0.045032,-0.00913153,0.0,0 STARLINK-5019,1 55407U 23014S   23207.58334491 -.00913153  00000-0 -45032-1 0  9991,2 55407  70.0003 318.2774 0003531 273.3862 119.5506 15.20429194  2509,6882.682,94.71,506.977,502.117,0.0
55407.0,STARLINK-5019,PAYLOAD,2023-07-27 00:00:00,15.19621831,0.0003378,70.0,317.1908,272.7907,239.5197,-0.046583,-0.00921889,0.0,0 STARLINK-5019,1 55407U 23014S   23208.00001157 -.00921889  00000-0 -46583-1 0  9996,2 55407  70.0000 317.1908 0003378 272.7907 239.5197 15.19621831  2571,6885.12,94.76,509.31,504.659,0.0
55407.0,STARLINK-5019,PAYLOAD,2023-07-27 14:00:01,15.18469673,0.0003444,70.0004,315.6722,273.8865,187.5094,-0.047401,-0.00908258,0.0,0 STARLINK-5019,1 55407U 23014S   23208.58334491 -.00908258  00000-0 -47401-1 0  9994,2 55407  70.0004 315.6722 0003444 273.8865 187.5094 15.18469673 27883,6888.602,94.832,512.839,508.095,0.0
55407.0,STARLINK-5019,PAYLOAD,2023-07-27 22:00:00,15.17851949,0.0003345,70.0001,314.8055,274.5029,208.1329,-0.051285,-0.00961009,0.0,0 STARLINK-5019,1 55407U 23014S   23208.91667824 -.00961009  00000-0 -51285-1 0  9998,2 55407  70.0001 314.8055 0003345 274.5029 208.1329 15.17851949  2716,6890.471,94.871,514.641,510.031,0.0
55407.0,STARLINK-5019,PAYLOAD,2023-07-28 14:00:01,15.16508237,0.0003362,70.0004,313.0749,272.9514,249.8639,-0.049654,-0.00899822,0.0,0 STARLINK-5019,1 55407U 23014S   23209.58334491 -.00899822  00000-0 -49654-1 0  9993,2 55407  70.0004 313.0749 0003362 272.9514 249.8639 15.16508237 28048,6894.54,94.955,518.723,514.088,0.0
55407.0,STARLINK-5019,PAYLOAD,2023-07-29 06:00:00,15.15239171,0.0003303,70.0006,311.3478,266.5586,293.2713,-0.053825,-0.00937715,0.0,0 STARLINK-5019,1 55407U 23014S   23210.25001157 -.00937715  00000-0 -53825-1 0  9998,2 55407  70.0006 311.3478 0003303 266.5586 293.2713 15.15239171 28147,6898.39,95.035,522.533,517.976,0.0
55407.0,STARLINK-5019,PAYLOAD,2023-07-30 06:00:02,15.13283225,0.0003373,70.0007,308.7635,265.4112,344.1654,-0.056983,-0.00939208,0.0,0 STARLINK-5019,1 55407U 23014S   23211.25002315 -.00939208  00000-0 -56983-1 0  9993,2 55407  70.0007 308.7635 0003373 265.4112 344.1654 15.13283225 28296,6904.332,95.157,528.526,523.869,0.0
55407.0,STARLINK-5019,PAYLOAD,2023-07-31 14:00:01,15.10633264,0.0003449,70.001,305.3301,270.9631,33.8628,-0.057706,-0.00887215,0.0,0 STARLINK-5019,1 55407U 23014S   23212.58334491 -.00887215  00000-0 -57706-1 0  9997,2 55407  70.0010 305.3301 0003449 270.9631  33.8628 15.10633264 28498,6912.405,95.324,536.654,531.885,0.0
55407.0,STARLINK-5019,PAYLOAD,2023-08-01 06:00:00,15.09372601,0.0003483,70.001,303.6185,265.7888,61.9704,-0.063945,-0.00944829,0.0,0 STARLINK-5019,1 55407U 23014S   23213.25001157 -.00944829  00000-0 -63945-1 0  9999,2 55407  70.0010 303.6185 0003483 265.7888  61.9704 15.09372601 28594,6916.253,95.404,540.527,535.709,0.0
55407.0,STARLINK-5019,PAYLOAD,2023-08-02 14:00:01,15.0672007,0.0003431,70.0006,300.2059,272.2578,92.0381,-0.064045,-0.00884638,0.0,0 STARLINK-5019,1 55407U 23014S   23214.58334491 -.00884638  00000-0 -64045-1 0  9999,2 55407  70.0006 300.2059 0003431 272.2578  92.0381 15.06720070 28796,6924.368,95.572,548.609,543.857,0.0
55407.0,STARLINK-5019,PAYLOAD,2023-08-03 06:00:00,15.05462487,0.0003417,70.0004,298.5047,267.221,110.6218,-0.071775,-0.0095263,0.0,0 STARLINK-5019,1 55407U 23014S   23215.25001157 -.00952630  00000-0 -71775-1 0  9990,2 55407  70.0004 298.5047 0003417 267.2210 110.6218 15.05462487 28892,6928.223,95.652,552.456,547.721,0.0
55407.0,STARLINK-5019,PAYLOAD,2023-08-04 06:00:00,15.03506931,0.0003366,70.0001,295.9594,268.0095,124.3145,-0.075943,-0.0096723,0.0,0 STARLINK-5019,1 55407U 23014S   23216.25001157 -.00967230  00000-0 -75943-1 0  9994,2 55407  70.0001 295.9594 0003366 268.0095 124.3145 15.03506931 29040,6934.23,95.776,558.429,553.761,0.0
